COSMOS 2507 (RODNIK-S *)
1 40920U 15050A   26186.26297596  .00000028  00000+0  13108-3 0  9990
2 40920  82.4912  68.4156 0009377 316.8377  43.1967 12.42927337489106
COSMOS 2508 (RODNIK-S *)
1 40921U 15050B   26186.29866399 -.00000023  00000+0 -23537-3 0  9991
2 40921  82.4864  66.8914 0014392 348.7797  11.2960 12.42914717489095
COSMOS 2509 (RODNIK-S *)
1 40922U 15050C   26186.31944826  .00000078  00000+0  49094-3 0  9991
2 40922  82.4872  66.9828 0015081   5.5370 354.5874 12.42884564489139
LINGQIAO VIDEO A        
1 40959U 15057B   26186.30942630  .00000970  00000+0  14290-3 0  9999
2 40959  97.6627 180.2183 0015786 206.0864 153.9553 14.77418226578083
LINGQIAO VIDEO B        
1 40960U 15057C   26186.28479863  .00001357  00000+0  19661-3 0  9998
2 40960  97.6592 181.3536 0015962 206.1834 153.8572 14.77524630578126
JILIN-1                 
1 40961U 15057D   26186.22253590  .00001127  00000+0  16183-3 0  9991
2 40961  97.6512 184.6942 0016302 199.6097 160.4490 14.78191441578272
FOX-1A (AO-85)          
1 40967U 15058D   26185.72448079  .00003548  00000+0  31797-3 0  9997
2 40967  64.7733 224.4803 0131559  49.7898 311.4638 14.91048256116183
SINOD-D 1               
1 40968U 15058E   26186.06125436  .00006081  00000+0  48016-3 0  9992
2 40968  64.7733 202.9332 0120252  46.0478 315.0480 14.96023800119332
ELEKTRO-L 2             
1 41105U 15074A   26185.93224534 -.00000107  00000+0  00000+0 0  9999
2 41105   6.7363  70.3059 0000617 256.6108 277.0927  1.00273703 38686
DAMPE                   
1 41173U 15078A   26186.27507024  .00001831  00000+0  63973-4 0  9991
2 41173  97.4559 191.8316 0012686  20.0115 340.1620 15.30834691587318
ORBCOMM FM110           
1 41182U 15081D   26185.56766189  .00001016  00000+0  25086-3 0  9992
2 41182  47.0022 279.2626 0003016 174.8918 185.1999 14.58909708560166
ORBCOMM FM112           
1 41184U 15081F   26186.01712583  .00000829  00000+0  21144-3 0  9996
2 41184  46.9970 185.9321 0004106 287.3246  72.7190 14.58926863561557
ORBCOMM FM113           
1 41185U 15081G   26186.06282944  .00000501  00000+0  14214-3 0  9992
2 41185  46.9986 186.1011 0002597 285.4446  74.6153 14.58875114561548
ORBCOMM FM108           
1 41187U 15081J   26186.16197949  .00000917  00000+0  22996-3 0  9992
2 41187  47.0046  97.2108 0003080 286.3598  73.6949 14.58899530562703
ORBCOMM FM117           
1 41188U 15081K   26186.12762714  .00000898  00000+0  22619-3 0  9997
2 41188  47.0010  96.0026 0003541 291.2757  68.7750 14.58887049562746
ORBCOMM FM116           
1 41189U 15081L   26186.03935556  .00000365  00000+0  11324-3 0  9994
2 41189  47.0006 186.2096 0001142 199.7196 160.3646 14.58900291561540
ZIYUAN 3-02 (ZY 3-02)   
1 41556U 16033A   26186.34396346  .00007657  00000+0  34387-3 0  9997
2 41556  97.3826 261.7692 0013076 220.5302 139.4961 15.21365884560740
CARTOSAT-2C             
1 41599U 16040A   26186.30498259  .00011457  00000+0  54620-3 0  9999
2 41599  97.4470 246.0333 0010094  75.0310 285.2042 15.19217214556464
LAPAN-A3                
1 41603U 16040E   26186.27013683  .00005100  00000+0  16105-3 0  9999
2 41603  97.1497 181.8232 0008678 319.0535  41.0055 15.33230808557581
GAOFEN-3                
1 41727U 16049A   26186.33038346  .00000368  00000+0  12479-3 0  9996
2 41727  98.4011 193.8426 0001714  91.4880 268.6507 14.42218931521267
CAS-2T & KS-1Q          
1 41847U 16066G   26185.48597832  .00001682  00000+0  24203-3 0  9991
2 41847  98.3815 261.0243 0342746  77.1704 286.7545 14.44750691507291
YUNHAI-1 01             
1 41857U 16068A   26186.32668904  .00000363  00000+0  14971-3 0  9993
2 41857  98.5842 197.1634 0003843  16.3456 343.7851 14.32716545504421
RESOURCESAT-2A          
1 41877U 16074A   26186.29982472  .00000077  00000+0  55355-4 0  9991
2 41877  98.7520 259.6562 0002922  48.9245 311.2184 14.21606760496879
TANSAT                  
1 41898U 16081A   26186.27328752  .00000778  00000+0  17236-3 0  9998
2 41898  98.5365 187.0660 0019114 252.6757 107.2351 14.59967069507261
