OBJECT_NAME,OBJECT_ID,EPOCH,MEAN_MOTION,ECCENTRICITY,INCLINATION,RA_OF_ASC_NODE,ARG_OF_PERICENTER,MEAN_ANOMALY,EPHEMERIS_TYPE,CLASSIFICATION_TYPE,NORAD_CAT_ID,ELEMENT_SET_NO,REV_AT_EPOCH,BSTAR,MEAN_MOTION_DOT,MEAN_MOTION_DDOT
COSMOS 2507 (RODNIK-S 13),2015-050A,2026-07-05T06:18:41.122944,12.42927337,.00093773,82.4912,68.4156,316.8377,43.1967,0,U,40920,999,48910,.13108258E-3,.28E-6,0
COSMOS 2508 (RODNIK-S 14),2015-050B,2026-07-05T07:10:04.568736,12.42914717,.00143927,82.4864,66.8914,348.7797,11.2960,0,U,40921,999,48909,-.23537478E-3,-.23E-6,0
COSMOS 2509 (RODNIK-S 15),2015-050C,2026-07-05T07:40:00.329664,12.42884564,.00150817,82.4872,66.9828,5.5370,354.5874,0,U,40922,999,48913,.49094144E-3,.78E-6,0
LINGQIAO VIDEO A,2015-057B,2026-07-05T07:25:34.432320,14.77418226,.00157864,97.6627,180.2183,206.0864,153.9553,0,U,40959,999,57808,.14289732E-3,.97E-5,0
LINGQIAO VIDEO B,2015-057C,2026-07-05T06:50:06.601632,14.77524630,.00159625,97.6592,181.3536,206.1834,153.8572,0,U,40960,999,57812,.19661004E-3,.1357E-4,0
JILIN-1,2015-057D,2026-07-05T05:20:27.101760,14.78191441,.00163024,97.6512,184.6942,199.6097,160.4490,0,U,40961,999,57827,.16183299E-3,.1127E-4,0
FOX-1A (AO-85),2015-058D,2026-07-04T17:23:15.140256,14.91048256,.01315597,64.7733,224.4803,49.7898,311.4638,0,U,40967,999,11618,.31797294E-3,.3548E-4,0
SINOD-D 1,2015-058E,2026-07-05T01:28:12.376704,14.96023800,.01202524,64.7733,202.9332,46.0478,315.0480,0,U,40968,999,11933,.48016207E-3,.6081E-4,0
ELEKTRO-L 2,2015-074A,2026-07-04T22:22:25.997376,1.00273703,.00006172,6.7363,70.3059,256.6108,277.0927,0,U,41105,999,3868,0,-.107E-5,0
DAMPE,2015-078A,2026-07-05T06:36:06.068736,15.30834691,.0012686,97.4559,191.8316,20.0115,340.1620,0,U,41173,999,58731,.63973025E-4,.1831E-4,0
ORBCOMM FM110,2015-081D,2026-07-04T13:37:25.987296,14.58909708,.0003016,47.0022,279.2626,174.8918,185.1999,0,U,41182,999,56016,.25086125E-3,.1016E-4,0
ORBCOMM FM112,2015-081F,2026-07-05T00:24:39.671712,14.58926863,.00041066,46.9970,185.9321,287.3246,72.7190,0,U,41184,999,56155,.21143783E-3,.829E-5,0
ORBCOMM FM113,2015-081G,2026-07-05T01:30:28.463616,14.58875114,.00025979,46.9986,186.1011,285.4446,74.6153,0,U,41185,999,56154,.14213585E-3,.501E-5,0
ORBCOMM FM108,2015-081J,2026-07-05T03:53:15.027936,14.58899530,.00030804,47.0046,97.2108,286.3598,73.6949,0,U,41187,999,56270,.22995519E-3,.917E-5,0
ORBCOMM FM117,2015-081K,2026-07-05T03:03:46.984896,14.58887049,.00035414,47.0010,96.0026,291.2757,68.7750,0,U,41188,999,56274,.22619151E-3,.898E-5,0
ORBCOMM FM116,2015-081L,2026-07-05T00:56:40.320384,14.58900291,.00011421,47.0006,186.2096,199.7196,160.3646,0,U,41189,999,56154,.11324185E-3,.365E-5,0
ZIYUAN 3-02 (ZY 3-02),2016-033A,2026-07-05T08:15:18.442944,15.21365884,.00130768,97.3826,261.7692,220.5302,139.4961,0,U,41556,999,56074,.34386732E-3,.7657E-4,0
CARTOSAT-2C,2016-040A,2026-07-05T07:19:10.495776,15.19217214,.00100942,97.4470,246.0333,75.0310,285.2042,0,U,41599,999,55646,.54619525E-3,.11457E-3,0
LAPAN-A3,2016-040E,2026-07-05T06:28:59.822112,15.33230808,.00086782,97.1497,181.8232,319.0535,41.0055,0,U,41603,999,55758,.16105273E-3,.51E-4,0
GAOFEN-3,2016-049A,2026-07-05T07:55:45.130944,14.42218931,.00017146,98.4011,193.8426,91.4880,268.6507,0,U,41727,999,52126,.12479272E-3,.368E-5,0
CAS-2T & KS-1Q,2016-066G,2026-07-04T11:39:48.526848,14.44750691,.03427469,98.3815,261.0243,77.1704,286.7545,0,U,41847,999,50729,.24203059E-3,.1682E-4,0
YUNHAI-1 01,2016-068A,2026-07-05T07:50:25.933056,14.32716545,.0003843,98.5842,197.1634,16.3456,343.7851,0,U,41857,999,50442,.14970984E-3,.363E-5,0
RESOURCESAT-2A,2016-074A,2026-07-05T07:11:44.855808,14.21606760,.00029228,98.7520,259.6562,48.9245,311.2184,0,U,41877,999,49687,.55354599E-4,.77E-6,0
TANSAT,2016-081A,2026-07-05T06:33:32.041728,14.59967069,.00191147,98.5365,187.0660,252.6757,107.2351,0,U,41898,999,50726,.1723594E-3,.778E-5,0
